A/2019 G2,e,159.2195,208.1696,82.6277,414.5576,0.0001168,0.99446060,0.0000,12/07.8776/2019,2000,g 16.5,2.0
# From MPEC 2022-VC5
A/2019 G3,e,156.8039,49.9127,161.8658,17.18113,0.0138397,0.83450922,25.4568,12/18.0/2023,2000,g 17.1,2.0
# From MPC114607
P/2019 GG21 (PANSTARRS),e,6.0867,340.5605,208.5798,7.467780,0.0482966,0.47178574,81.2918,12/18.0/2023,2000,g 12.0,4.0
# From MPEC 2022-M21
C/2019 H1 (NEOWISE),e,104.4087,269.2915,19.3139,242.2526,0.0002614,0.99239073,0.0000,04/27.8343/2019,2000,g 15.5,4.0
# From MPEC 2023-A50
C/2019 J1 (Lemmon),e,24.5334,98.1917,167.6974,67.74697,0.0017675,0.96330923,3.0329,12/18.0/2023,2000,g 12.0,4.0
# From MPEC 2021-R75
C/2019 J2 (Palomar),e,5.2602,25.5323,98.6817,161.1817,0.0004816,0.98932028,0.0000,07/20.4028/2019,2000,g 13.0,4.0
# From MPC117071
C/2019 J3 (ATLAS),h,08/02.4860/2019,131.3257,270.6293,16.5808,1.000484,2.367979,2000,13.5,4.0
# From MPEC 2022-M21
C/2019 JU6 (ATLAS),h,06/02.3392/2019,148.3297,21.7618,94.9527,1.000082,2.040779,2000,14.5,4.0
# From MPEC 2022-O08
C/2019 K1 (ATLAS),e,87.0293,73.3201,265.7369,6088,0.0000021,0.99966892,0.0000,02/12.3183/2020,2000,g 10.0,4.0
# From MPC119997
C/2019 K4 (Ye),e,105.2968,180.1770,139.9360,1463,0.0000176,0.99844691,0.0000,06/15.3970/2019,2000,g 12.5,4.0
# From MPEC 2021-P47
C/2019 K5 (Young),e,15.3136,177.1900,175.1374,169.5980,0.0004462,0.98793465,0.0000,06/22.7282/2019,2000,g 13.0,4.0
# From MPEC 2021-P47
C/2019 K6 (PANSTARRS),e,132.3795,43.0023,187.5406,1298,0.0000211,0.99697960,0.0000,05/19.7047/2020,2000,g 11.5,4.0
# From MPEC 2023-R20
C/2019 K7 (Smith),h,06/17.6542/2020,103.5175,307.9889,27.4086,1.000985,4.478163,2000,6.0,4.0
# From MPEC 2021-R75
C/2019 K8 (ATLAS),e,93.1110,291.0231,85.3616,2251,0.0000092,0.99858110,0.0000,07/21.4442/2019,2000,g 11.5,4.0
# From MPEC 2023-A50
C/2019 L1 (PANSTARRS),e,9.9760,254.4290,50.0609,9.835946,0.0319507,0.70495974,50.8385,12/18.0/2023,2000,g 13.5,4.0
# From MPC115886
C/2019 L2 (NEOWISE),e,152.2034,12.5532,18.8612,25.08988,0.0078425,0.93519086,13.4939,12/18.0/2023,2000,g 16.0,4.0
# From MPEC 2023-XP6
P/2019 LD2 (ATLAS),e,11.6106,179.5048,118.7801,5.205652,0.0829834,0.12682377,115.6520,12/18.0/2023,2000,g  8.5,4.0
# From MPEC 2023-XP6
C/2019 L3 (ATLAS),h,01/09.7713/2022,48.3454,290.7582,171.6465,1.002400,3.554767,2000,4.5,4.0
# From MPEC 2020-K19
P/2019 LM4 (Palomar),e,36.4160,72.8385,68.2789,5.705199,0.0723266,0.58519126,118.8988,12/18.0/2023,2000,g  9.5,4.0
# From MPC118095
C/2019 LB7 (Kleyna),e,164.2899,3.9062,336.6397,34.79927,0.0048012,0.92832110,8.2946,12/18.0/2023,2000,g 17.0,4.0
# From MPEC 2022-O08
P/2019 M2 (ATLAS),e,12.2690,307.5895,332.5564,3.029565,0.1869105,0.64728741,306.6977,12/18.0/2023,2000,g 21.2,4.0
# From MPC118095
C/2019 M3 (ATLAS),e,99.5500,154.9588,87.9123,5121,0.0000027,0.99952663,0.0000,12/31.5220/2018,2000,g 12.2,4.0
# From MPEC 2023-JA2
C/2019 M4 (TESS),h,09/11.9062/2019,65.6785,52.6493,260.3727,1.002879,9.189518,2000,5.0,4.0
# From MPEC 2023-C45
C/2019 N1 (ATLAS),e,82.4410,13.5652,193.3894,1262,0.0000220,0.99864958,0.0000,12/01.0272/2020,2000,g  7.5,4.0
# From MPEC 2023-CD8
A/2019 N2,e,89.3606,276.1659,347.1721,1496,0.0000170,0.99869885,0.0000,08/22.6893/2019,2000,g 12.5,2.0
# From MPEC 2022-A21
C/2019 NJ3 (Lemmon),h,10/22.7636/2020,99.3993,142.4801,246.8957,1.001957,4.363522,2000,9.0,4.0
# From MPEC 2023-SQ0
A/2019 O2,e,93.3123,48.2577,129.6178,58.22136,0.0022186,0.83369351,0.5662,12/18.0/2023,2000,g  9.5,2.0
# From MPEC 2023-XP6
C/2019 O3 (Palomar),h,03/09.6342/2021,89.8138,300.4408,60.1331,1.004326,8.821365,2000,3.5,4.0
# From MPEC 2021-P47
A/2019 O4,e,15.0917,354.9281,61.9251,33.31794,0.0051249,0.89042505,7.2064,12/18.0/2023,2000,g 15.5,2.0
# From MPEC 2023-A50
C/2019 Q1 (Lemmon),h,07/21.1659/2020,155.7315,42.4562,56.2294,1.001388,5.004637,2000,8.5,4.0
# From MPC117072
A/2019 Q2,e,159.0203,188.0301,176.4374,58.24406,0.0022173,0.97830197,0.0000,07/22.3773/2019,2000,g 18.0,2.0
# From MPC117072
P/2019 S2 (PANSTARRS),e,10.4651,93.1874,217.1019,4.744505,0.0953713,0.20522723,167.9795,12/18.0/2023,2000,g 13.5,4.0
# From MPEC 2022-CN4
P/2019 S3 (PANSTARRS),e,8.6943,150.1700,213.0557,3.415235,0.1561613,0.47107336,245.6989,12/18.0/2023,2000,g 18.3,4.0
# From MPEC 2021-S45
C/2019 S4 (Lemmon),e,92.1012,63.1577,71.3711,238.1822,0.0002681,0.98554848,0.0000,04/08.3169/2020,2000,g 11.0,4.0
# From MPEC 2023-N01
A/2019 T1,e,120.8676,6.9445,91.0589,38.83041,0.0040733,0.88977676,4.3463,12/18.0/2023,2000,g 13.0,2.0
# From MPEC 2023-R20
C/2019 T2 (Lemmon),e,111.4509,155.6544,239.4285,5051,0.0000027,0.99947626,0.0000,04/22.6382/2021,2000,g  9.0,4.0
# From MPEC 2023-UR6
C/2019 T3 (ATLAS),e,121.8396,139.5325,112.4574,3407,0.0000050,0.99825300,0.0000,03/04.3023/2021,2000,g  6.8,4.0
# From MPEC 2023-XP6
C/2019 T4 (ATLAS),e,53.6307,199.9369,351.1430,910.2604,0.0000359,0.99534099,0.0000,06/08.7871/2022,2000,g  5.0,4.0
# From MPEC 2021-P47
P/2019 T5 (ATLAS),e,33.4900,247.6150,189.5773,7.999929,0.0435587,0.80974939,69.6334,12/18.0/2023,2000,g 15.0,4.0
# From MPEC 2021-P47
P/2019 T6 (PANSTARRS),e,18.6979,71.2517,328.9951,5.439246,0.0776955,0.62306527,116.5496,12/18.0/2023,2000,g 15.5,4.0
# From MPC118096
P/2019 U4 (PANSTARRS),e,11.6988,200.0204,181.0345,3.519860,0.1492506,0.47601058,231.3149,12/18.0/2023,2000,g 19.0,4.0
# From MPEC 2023-XP6
C/2019 U5 (PANSTARRS),h,03/29.7479/2023,113.5164,2.6348,181.4771,1.001131,3.623990,2000,4.5,4.0
# From MPEC 2022-H04
C/2019 U6 (Lemmon),e,60.9672,235.7860,329.5225,324.8390,0.0001683,0.99719285,0.0000,06/18.3073/2020,2000,g 10.0,4.0
# From MPEC 2022-N37
C/2019 V1 (Borisov),e,61.9264,83.1532,51.1690,1706,0.0000140,0.99818675,0.0000,07/16.6668/2020,2000,g 11.0,4.0
# From MPEC 2022-L66
P/2019 V2 (Groeller),e,11.8078,189.1796,335.6755,7.496678,0.0480176,0.33123349,55.5632,12/18.0/2023,2000,g 10.0,4.0
# From MPEC 2023-A50
P/2019 W1 (PANSTARRS),e,23.4755,35.3765,18.7706,4.548863,0.1015897,0.26727114,170.9706,12/18.0/2023,2000,g 12.9,4.0
# From MPEC 2021-P47
P/2019 X1 (Pruyne),e,10.2504,43.6794,36.8293,6.175281,0.0642272,0.30388459,103.3488,12/18.0/2023,2000,g 10.4,4.0
# From MPEC 2020-C98
P/2019 X2 (Pan-STARRS),e,15.8951,250.8393,213.4493,3.636210,0.1421447,0.49999116,208.8271,12/18.0/2023,2000,g 18.0,4.0
# From MPC119999
C/2019 Y1 (ATLAS),e,73.3812,31.5426,57.9135,87.03245,0.0012139,0.99048283,0.0000,03/16.3165/2020,2000,g 13.7,4.0
# From MPEC 2020-C98
P/2019 Y3 (Catalina),e,24.6033,139.3069,2.5832,3.014035,0.1883569,0.69114555,276.8956,12/18.0/2023,2000,g 18.5,4.0
# From MPEC 2022-YN2
C/2019 Y4 (ATLAS),e,45.1330,120.7016,177.4478,349.6071,0.0001508,0.99926784,0.0000,05/30.6753/2020,2000,g 11.8,6.0
# From MPEC 2020-L06
C/2019 Y4-A (ATLAS),h,05/30.7064/2020,45.5738,121.0647,177.2813,1.001415,0.254123,2000,11.6,6.0
# From MPEC 2023-J29
C/2019 Y4-B (ATLAS),h,05/30.6816/2020,45.2632,120.8082,177.3918,1.000012,0.255436,2000,12.1,6.0
# From MPEC 2020-L06
C/2019 Y4-C (ATLAS),h,05/30.6593/2020,45.3564,120.7915,177.3145,1.002140,0.255195,2000,12.7,6.0
# From MPEC 2020-L06
C/2019 Y4-D (ATLAS),e,45.4033,121.1622,177.4532,68.28131,0.0017468,0.99627263,0.0000,05/30.7827/2020,2000,g 12.5,6.0
# From MPEC 2023-A50
C/2019 Y5 (PANSTARRS),e,82.7617,51.7507,303.5906,730.3002,0.0000499,0.99325825,0.0000,08/17.6360/2019,2000,g 11.0,4.0
# From MPEC 2023-A50
A/2020 A1,e,149.0346,119.1638,302.4579,25.57055,0.0076224,0.93482270,11.2595,12/18.0/2023,2000,g 18.0,2.0
# From MPEC 2022-YN2
C/2020 A2 (Iwamoto),e,120.5865,286.2631,68.0547,1259,0.0000221,0.99922667,0.0000,01/08.3500/2020,2000,g 13.5,4.0
# From MPEC 2023-A50
C/2020 A3 (ATLAS),h,06/28.7178/2019,146.6536,120.8050,268.3286,1.000426,5.757137,2000,8.0,4.0
# From MPEC 2022-P91
P/2020 A4 (PANSTARRS-Lemmon),e,24.9917,312.3592,144.7799,8.195385,0.0420097,0.65424220,62.4100,12/18.0/2023,2000,g 15.0,4.0
# From MPEC 2020-N08
A/2020 B1,e,18.5217,309.9258,154.7337,51.55365,0.0026627,0.96626442,3.8669,12/18.0/2023,2000,g 21.0,2.0
# From MPEC 2020-HN5
C/2020 B2 (Lemmon),e,55.7529,354.2821,143.5977,67.66755,0.0017707,0.95921983,2.5167,12/18.0/2023,2000,g 10.0,4.0
# From MPEC 2022-N37
C/2020 B3 (Rankin),e,20.7088,185.8332,324.8858,938.4669,0.0000343,0.99644836,0.0000,10/19.6524/2019,2000,g 13.0,4.0
# From MPEC 2023-KD6
P/2020 B4 (Sheppard),e,11.6081,185.9764,342.0053,7.967315,0.0438264,0.19202968,33.2917,12/18.0/2023,2000,g 10.5,4.0
# From MPEC 2023-XP6
C/2020 F2 (ATLAS),h,07/14.2410/2022,163.5893,250.2992,48.3040,1.004964,8.815707,2000,4.5,4.0
# From MPEC 2021-O56
C/2020 F3 (NEOWISE),e,29.1039,61.0844,37.3014,363.6206,0.0001421,0.99919205,0.0000,07/04.0722/2020,2000,g  7.5,5.2
# From MPEC 2023-XP6
C/2020 F5 (MASTER),e,52.2068,350.5011,310.6799,172.1345,0.0004364,0.97486880,0.0000,03/17.1823/2021,2000,g  6.5,3.2
# From MPEC 2020-L06
C/2020 F6 (PANSTARRS),e,174.5831,207.8999,344.4917,385.3252,0.0001303,0.99091047,0.0000,04/11.5466/2020,2000,g 14.5,2.8
# From MPEC 2023-J95
C/2020 F7 (Lemmon),e,93.9554,321.8575,227.9478,560.2528,0.0000743,0.99048218,0.0000,11/13.6367/2021,2000,g  7.0,4.0
# From MPEC 2023-J29
C/2020 F8 (SWAN),h,05/27.0109/2020,110.5936,259.8459,68.0754,1.000158,0.429850,2000,10.0,4.0
# From MPEC 2020-L06
P/2020 G1 (Pimentel),e,18.5101,240.1080,207.6163,3.607909,0.1438205,0.86059147,197.0343,12/18.0/2023,2000,g 17.0,4.0
# From MPEC 2022-YB4
C/2020 H2 (Pruyne),e,124.8595,277.6694,26.6412,186.7631,0.0003862,0.99555494,0.0000,04/27.7717/2020,2000,g 14.0,3.2
# From MPEC 2020-HM1
C/2020 H3 (Wierzchos),p,06/05.7162/2020,62.5292,30.4456,2.300288,270.6227,2000,13.5,4.0
# From MPEC 2020-L06
C/2020 H4 (Leonard),e,84.4987,307.6151,117.5144,47.82282,0.0029802,0.98066712,0.0000,08/29.6177/2020,2000,g 15.0,3.2
# From MPEC 2023-VM5
C/2020 H5 (Robinson),e,70.2555,210.6274,326.3093,4284,0.0000035,0.99781971,0.0000,12/10.3523/2020,2000,g  5.0,4.0
# From MPEC 2023-SQ0
C/2020 H6 (ATLAS),e,79.9779,213.7202,20.2708,4177,0.0000037,0.99887459,0.0000,09/30.3803/2021,2000,g  8.0,3.2
# From MPEC 2020-KB7
C/2020 H7 (Lemmon),e,135.9235,323.5194,82.6780,1405,0.0000187,0.99685380,0.0000,06/02.9510/2020,2000,g 11.0,4.0
# From MPEC 2021-N06
